{
    "links": {
        "self": "http://www.neowsapp.com/rest/v1/neo/3771589?api_key=iIulBulltgU6a56xZRHN4H3l9WmuAYTsLGpBGhQ2"
    },
    "id": "3771589",
    "neo_reference_id": "3771589",
    "name": "(2017 FU)",
    "designation": "2017 FU",
    "nasa_jpl_url": "http://ssd.jpl.nasa.gov/sbdb.cgi?sstr=3771589",
    "absolute_magnitude_h": 25.7,
    "estimated_diameter": {
        "kilometers": {
            "estimated_diameter_min": 0.0192555078,
            "estimated_diameter_max": 0.0430566244
        },
        "meters": {
            "estimated_diameter_min": 19.2555078188,
            "estimated_diameter_max": 43.0566244241
        },
        "miles": {
            "estimated_diameter_min": 0.0119648141,
            "estimated_diameter_max": 0.0267541378
        },
        "feet": {
            "estimated_diameter_min": 63.1742402722,
            "estimated_diameter_max": 141.2618956756
        }
    },
    "is_potentially_hazardous_asteroid": false,
    "close_approach_data": [
        {
            "close_approach_date": "2017-03-10",
            "close_approach_date_full": "2017-Mar-10 14:06",
            "epoch_date_close_approach": 1489154760000,
            "relative_velocity": {
                "kilometers_per_second": "8.8477468233",
                "kilometers_per_hour": "31851.8885638004",
                "miles_per_hour": "19791.5248689903"
            },
            "miss_distance": {
                "astronomical": "0.0373587825",
                "lunar": "14.5325663925",
                "kilometers": "5588794.287793275",
                "miles": "3472715.738466195"
            },
            "orbiting_body": "Earth"
        }
    ],
    "orbital_data": {
        "orbit_id": "7",
        "orbit_determination_date": "2017-04-06 08:19:27",
        "first_observation_date": "2017-03-17",
        "last_observation_date": "2017-04-03",
        "data_arc_in_days": 17,
        "observations_used": 45,
        "orbit_uncertainty": "7",
        "minimum_orbit_intersection": ".0289956",
        "jupiter_tisserand_invariant": "3.366",
        "epoch_osculation": "2459000.5",
        "eccentricity": ".5627098560069361",
        "semi_major_axis": "2.285177545543509",
        "inclination": "6.186926333872554",
        "ascending_node_longitude": "173.7812207738724",
        "orbital_period": "1261.764629441069",
        "perihelion_distance": ".9992856179404374",
        "perihelion_argument": "333.7027139283232",
        "aphelion_distance": "3.571069473146581",
        "perihelion_time": "2459066.606195898323",
        "mean_anomaly": "341.1389303772619",
        "mean_motion": ".285314702599859",
        "equinox": "J2000",
        "orbit_class": {
            "orbit_class_type": "APO",
            "orbit_class_description": "Near-Earth asteroid orbits which cross the Earth’s orbit similar to that of 1862 Apollo",
            "orbit_class_range": "a (semi-major axis) > 1.0 AU; q (perihelion) < 1.017 AU"
        }
    },
    "is_sentry_object": false
}